445P/Lemmon-PANSTARRS,e,1.0885,126.5925,213.4479,4.053398,0.1207745,0.41404968,57.2413,12/04.0/2023,2000,g 15.0,4.0
# From MPEC 2022-WQ9
446P/McNaught,e,16.6142,336.3853,344.6895,4.566765,0.1009930,0.64683041,55.9058,12/04.0/2023,2000,g 16.5,4.0
# From MPEC 2022-YB4
447P/Sheppard-Tholen,e,7.4366,302.6443,97.7391,5.634872,0.0736848,0.17873561,34.7591,12/04.0/2023,2000,g 12.0,4.0
# From MPEC 2023-A50
448P/PANSTARRS,e,12.1510,161.7556,218.7442,3.634585,0.1422400,0.41874852,64.5005,12/04.0/2023,2000,g 16.0,4.0
# From MPEC 2022-UE6
449P/Leonard,e,15.4662,242.5405,176.6992,3.600089,0.1442893,0.47982836,159.3845,12/04.0/2023,2000,g 16.0,4.0
# From MPEC 2023-RF3
450P/LONEOS,e,10.5550,124.8116,21.2702,7.973646,0.0437742,0.31167768,310.0947,12/04.0/2023,2000,g  6.5,4.0
# From MPEC 2023-HD1
451P/Christensen,e,26.4795,300.8999,186.7140,6.342845,0.0616990,0.55880147,22.9156,12/04.0/2023,2000,g 15.5,4.0
# From MPEC 2023-J29
452P/Sheppard-Jewitt,e,6.4216,123.6896,37.0407,7.300592,0.0499651,0.42770931,11.1152,12/04.0/2023,2000,g  9.0,4.0
# From MPEC 2023-RF3
453P/WISE-Lemmon,e,27.0681,42.8957,70.8435,5.461229,0.0772269,0.58277899,21.3084,12/04.0/2023,2000,g 14.0,4.0
# From MPEC 2023-CD7
454P/PANSTARRS,e,19.8127,54.5825,20.0646,4.207721,0.1141915,0.36155380,56.6093,12/04.0/2023,2000,g 14.0,4.0
# From MPEC 2022-Y14
455P/PANSTARRS,e,14.1376,146.1846,237.5124,3.152914,0.1760499,0.30492692,49.6046,12/04.0/2023,2000,g 17.0,4.0
# From MPEC 2023-N01
456P/PANSTARRS,e,16.9633,243.1724,233.9365,3.169789,0.1746460,0.11778616,272.3607,12/04.0/2023,2000,g 13.5,4.0
# From MPEC 2023-F99
457P/Lemmon-PANSTARRS,e,5.2253,175.9741,104.4182,2.646055,0.2289843,0.11872891,300.3616,12/04.0/2023,2000,g 15.5,4.0
# From MPEC 2023-HD1
458P/Jahn,e,13.6274,1.5873,104.8187,3.857177,0.1301067,0.31704953,52.0091,12/04.0/2023,2000,g 17.3,4.0
# From MPEC 2023-UR6
459P/Catalina,e,7.1725,256.9915,205.1954,3.239473,0.1690412,0.57766440,48.2769,12/04.0/2023,2000,g 15.5,4.0
# From MPEC 2023-G14
460P/PANSTARRS,e,18.8951,180.5153,351.9585,3.027073,0.1871413,0.66403172,168.5289,12/04.0/2023,2000,g 21.0,4.0
# From MPEC 2023-J95
461P/WISE,e,18.4112,194.3770,174.8228,3.143058,0.1768787,0.57019676,139.7489,12/04.0/2023,2000,g 18.5,4.0
# From MPEC 2023-JA3
462P/LONEOS-PANSTARRS,e,7.0256,322.8028,4.3942,4.880330,0.0914177,0.57827610,44.7037,12/04.0/2023,2000,g 17.0,4.0
# From MPEC 2023-RF3
463P/NEOWISE,e,29.2827,283.2090,216.3606,2.974552,0.1921196,0.82558248,47.9097,12/04.0/2023,2000,g 18.0,4.0
# From MPEC 2023-RF3
464P/PANSTARRS,e,21.6654,309.5829,267.6645,4.687183,0.0971262,0.28053549,27.1048,12/04.0/2023,2000,g 10.5,4.0
# From MPEC 2023-W26
465P/Hill,e,25.8716,218.0113,141.1984,6.037343,0.0664409,0.61420058,13.8333,12/04.0/2023,2000,g 12.5,4.0
# From MPEC 2023-VM5
466P/PANSTARRS,e,12.2350,119.8509,196.7492,4.044561,0.1211705,0.46722368,25.9590,12/04.0/2023,2000,g 14.0,4.0
# From MPEC 2023-T65
467P/LINEAR-Grauer,e,2.4788,43.2721,267.8293,5.831771,0.0699847,0.05543784,25.7141,12/04.0/2023,2000,g  9.0,4.0
# From MPEC 2023-W26
468P/SidingSpring,e,50.4456,356.1243,322.5558,7.123483,0.0518401,0.44551386,0.6707,12/04.0/2023,2000,g 11.5,4.0
# From MPEC 2023-P35
469P/PANSTARRS,e,20.1742,178.9647,43.5371,4.339732,0.1090209,0.30745081,279.7829,12/04.0/2023,2000,g 13.5,4.0
# From MPEC 2023-VM5
470P/PANSTARRS,e,8.8391,246.1814,152.0444,4.476374,0.1040674,0.39041668,358.5199,12/04.0/2023,2000,g 15.5,4.0
# From MPEC 2023-W26
471P/,e,4.7909,283.3413,94.9589,5.707922,0.0722748,0.62798971,358.8225,12/04.0/2023,2000,g 12.0,4.0
# From MPC107687
1I/`Oumuamua,h,09/09.4886/2017,122.6778,24.5997,241.6845,1.199252,0.255240,2000,23.0,2.0
# From MPEC 2023-L37
2I/Borisov,h,12/08.5548/2019,44.0527,308.1480,209.1251,3.356633,2.006548,2000,11.0,4.0
